NORAD_CAT_ID,OBJECT_NAME,OBJECT_TYPE,EPOCH,MEAN_MOTION,ECCENTRICITY,INCLINATION,RA_OF_ASC_NODE,ARG_OF_PERICENTER,MEAN_ANOMALY,BSTAR,MEAN_MOTION_DOT,MEAN_MOTION_DDOT,TLE_LINE0,TLE_LINE1,TLE_LINE2,SEMIMAJOR_AXIS,PERIOD,APOGEE,PERIGEE,DECAYED
53975.0,STARLINK-5137,PAYLOAD,2022-12-04 14:00:01,15.08866845,0.0002014,53.2137,166.4805,55.7702,236.1312,-0.002762,-0.00044011,0.0,0 STARLINK-5137,1 53975U 22125M   22338.58334491 -.00044011  00000-0 -27620-2 0  9997,2 53975  53.2137 166.4805 0002014  55.7702 236.1312 15.08866845  1308,6917.7980000000025,95.436,541.057,538.27,0.0
53975.0,STARLINK-5137,PAYLOAD,2022-12-04 20:00:01,15.08828673,0.0002146,53.2136,165.3595,50.1306,160.4866,-0.0010556,-0.00017044,0.0,0 STARLINK-5137,1 53975U 22125M   22338.83334491 -.00017044  00000-0 -10556-2 0  9991,2 53975  53.2136 165.3595 0002146  50.1306 160.4866 15.08828673  9674,6917.915,95.438,541.265,538.295,0.0
53975.0,STARLINK-5137,PAYLOAD,2022-12-04 22:00:00,15.0880318,0.000216,53.2137,164.9857,49.0481,254.4711,0.0022154,0.00035111,0.0,0 STARLINK-5137,1 53975U 22125M   22338.91667824  .00035111  00000-0  22154-2 0  9999,2 53975  53.2137 164.9857 0002160  49.0481 254.4711 15.08803180  1309,6917.993,95.44,541.352,538.364,0.0
53975.0,STARLINK-5137,PAYLOAD,2022-12-05 12:00:00,15.08822397,0.0002011,53.2138,162.3648,55.3559,178.4149,0.0014103,0.00022218,0.0,0 STARLINK-5137,1 53975U 22125M   22339.50001157  .00022218  00000-0  14103-2 0  9995,2 53975  53.2138 162.3648 0002011  55.3559 178.4149 15.08822397  9771,6917.934,95.439,541.19,538.408,0.0
53975.0,STARLINK-5137,PAYLOAD,2022-12-05 14:00:01,15.08840351,0.0002035,53.2139,161.991,54.7122,272.0114,-0.0006087999999999,-9.965e-05,0.0,0 STARLINK-5137,1 53975U 22125M   22339.58335648 -.00009965  00000-0 -60880-3 0  9998,2 53975  53.2139 161.9910 0002035  54.7122 272.0114 15.08840351  1308,6917.879,95.438,541.1519999999998,538.337,0.0
53975.0,STARLINK-5137,PAYLOAD,2022-12-05 18:55:02,15.08833085,0.0002047,53.2163,161.0712,53.4282,306.6899,-3.8027e-05,-8.93e-06,0.0,0 STARLINK-5137,1 53975U 22125M   22339.78822138 -.00000893  00000-0 -38027-4 0  9995,2 53975  53.2163 161.0712 0002047  53.4282 306.6899 15.08833085  9759,6917.901999999999,95.438,541.183,538.35,0.0
53975.0,STARLINK-5137,PAYLOAD,2022-12-05 20:30:25,15.08834009,0.0002057,53.2163,160.7736,53.702,306.4161,-4.4901e-05,-1.003e-05,0.0,0 STARLINK-5137,1 53975U 22125M   22339.85446123 -.00001003  00000-0 -44901-4 0  9991,2 53975  53.2163 160.7736 0002057  53.7020 306.4161 15.08834009  9831,6917.899,95.438,541.187,538.341,0.0
53975.0,STARLINK-5137,PAYLOAD,2022-12-06 12:24:16,15.08837253,0.000207,53.216,157.8005,54.2377,305.8808,-3.8516e-05,-9.01e-06,0.0,0 STARLINK-5137,1 53975U 22125M   22340.51686053 -.00000901  00000-0 -38516-4 0  9995,2 53975  53.2160 157.8005 0002070  54.2377 305.8808 15.08837253  9868,6917.889,95.438,541.186,538.322,0.0
53975.0,STARLINK-5137,PAYLOAD,2022-12-06 18:45:49,15.08838914,0.0002076,53.2158,156.6112,53.9057,306.2127,-1.7642e-05,-5.69e-06,0.0,0 STARLINK-5137,1 53975U 22125M   22340.78181902 -.00000569  00000-0 -17642-4 0  9994,2 53975  53.2158 156.6112 0002076  53.9057 306.2127 15.08838914  9974,6917.884,95.438,541.185,538.313,0.0
53975.0,STARLINK-5137,PAYLOAD,2022-12-07 18:36:36,15.08838134,0.0002098,53.2158,152.1507,54.4686,305.6502,7.8144e-05,9.56e-06,0.0,0 STARLINK-5137,1 53975U 22125M   22341.77541744  .00000956  00000-0  78144-4 0  9990,2 53975  53.2158 152.1507 0002098  54.4686 305.6502 15.08838134 10056,6917.886,95.438,541.202,538.3,0.0
53975.0,STARLINK-5137,PAYLOAD,2022-12-07 23:22:46,15.08826637,0.000204,53.2154,151.2588,52.9052,307.2127,-3.8636e-05,-9.03e-06,0.0,0 STARLINK-5137,1 53975U 22125M   22341.97414943 -.00000903  00000-0 -38636-4 0  9998,2 53975  53.2154 151.2588 0002040  52.9052 307.2127 15.08826637 10155,6917.920999999999,95.438,541.197,538.375,0.0
53975.0,STARLINK-5137,PAYLOAD,2022-12-08 04:08:55,15.08828038,0.0002013,53.2154,150.3665,53.5616,306.5562,-3.8752e-05,-9.05e-06,0.0,0 STARLINK-5137,1 53975U 22125M   22342.17286965 -.00000905  00000-0 -38752-4 0  9993,2 53975  53.2154 150.3665 0002013  53.5616 306.5562 15.08828038 10112,6917.917,95.438,541.175,538.389,0.0
53975.0,STARLINK-5137,PAYLOAD,2022-12-08 18:27:27,15.0879172,0.0002126,53.217,147.6936,339.7139,20.3769,-0.00034558,-5.777e-05,0.0,0 STARLINK-5137,1 53975U 22125M   22342.76906352 -.00005777  00000-0 -34558-3 0  9998,2 53975  53.2170 147.6936 0002126 339.7139  20.3769 15.08791720 10201,6918.028,95.441,541.364,538.422,0.0
53975.0,STARLINK-5137,PAYLOAD,2022-12-08 21:38:09,15.08839614,0.0001883,53.2169,147.0977,54.4235,305.6932,3.5846e-05,2.82e-06,0.0,0 STARLINK-5137,1 53975U 22125M   22342.90150266  .00000282  00000-0  35846-4 0  9995,2 53975  53.2169 147.0977 0001883  54.4235 305.6932 15.08839614 10290,6917.882,95.438,541.049,538.444,0.0
53975.0,STARLINK-5137,PAYLOAD,2022-12-09 10:21:11,15.08898914,0.0001823,53.2168,144.7209,23.2854,336.82199999999995,0.0001429,1.99e-05,0.0,0 STARLINK-5137,1 53975U 22125M   22343.43138713  .00001990  00000-0  14290-3 0  9993,2 53975  53.2168 144.7209 0001823  23.2854 336.8220 15.08898914 10302,6917.7,95.434,540.826,538.304,0.0
53975.0,STARLINK-5137,PAYLOAD,2022-12-09 19:53:34,15.08842692,0.0001827,53.2166,142.9366,55.5515,304.5649,-0.00030169,-5.087e-05,0.0,0 STARLINK-5137,1 53975U 22125M   22343.82887052 -.00005087  00000-0 -30169-3 0  9999,2 53975  53.2166 142.9366 0001827  55.5515 304.5649 15.08842692 10433,6917.871999999999,95.437,541.001,538.4730000000002,0.0
53975.0,STARLINK-5137,PAYLOAD,2022-12-10 02:15:07,15.08812551,0.0002306,53.2165,141.7474,48.0606,312.0582,-9.5654e-07,-3.03e-06,0.0,0 STARLINK-5137,1 53975U 22125M   22344.09384098 -.00000303  00000-0 -95654-6 0  9990,2 53975  53.2165 141.7474 0002306  48.0606 312.0582 15.08812551 10475,6917.964,95.439,541.425,538.234,0.0
53975.0,STARLINK-5137,PAYLOAD,2022-12-10 11:47:27,15.08812945,0.0001177,53.2162,139.9626,329.4258,30.6666,-0.00052234,-8.585e-05,0.0,0 STARLINK-5137,1 53975U 22125M   22344.49128931 -.00008585  00000-0 -52234-3 0  9990,2 53975  53.2162 139.9626 0001177 329.4258  30.6666 15.08812945 10466,6917.9630000000025,95.439,540.6419999999998,539.014,0.0
53975.0,STARLINK-5137,PAYLOAD,2022-12-10 18:09:00,15.0880298,0.000137,53.2164,138.7734,105.2242,254.8902,-0.00031224,-5.249e-05,0.0,0 STARLINK-5137,1 53975U 22125M   22344.75625494 -.00005249  00000-0 -31224-3 0  9995,2 53975  53.2164 138.7734 0001370 105.2242 254.8902 15.08802980 10509,6917.994000000002,95.44,540.806,538.911,0.0
53975.0,STARLINK-5137,PAYLOAD,2022-12-10 22:55:07,15.0883093,0.0001556,53.2165,137.8794,39.1098,321.0007,-5.5705e-05,-1.174e-05,0.0,0 STARLINK-5137,1 53975U 22125M   22344.95495065 -.00001174  00000-0 -55705-4 0  9990,2 53975  53.2165 137.8794 0001556  39.1098 321.0007 15.08830930 10606,6917.908,95.438,540.85,538.697,0.0
53975.0,STARLINK-5137,PAYLOAD,2022-12-11 10:02:48,15.08855293,0.0001348,53.2167,135.7949,51.558,308.5533,-0.00010689,-1.989e-05,0.0,0 STARLINK-5137,1 53975U 22125M   22345.41861533 -.00001989  00000-0 -10689-3 0  9994,2 53975  53.2167 135.7949 0001348  51.5580 308.5533 15.08855293 10670,6917.834,95.437,540.631,538.766,0.0
53975.0,STARLINK-5137,PAYLOAD,2022-12-11 17:59:44,15.088406,0.000247,53.216,134.3118,44.0247,316.0941,1.0039e-05,-1.29e-06,0.0,0 STARLINK-5137,1 53975U 22125M   22345.74982360 -.00000129  00000-0  10039-4 0  9996,2 53975  53.2160 134.3118 0002470  44.0247 316.0941 15.08840600 10729,6917.879,95.438,541.452,538.035,0.0
53975.0,STARLINK-5137,PAYLOAD,2022-12-12 19:25:54,15.088378,0.0001947,53.2162,129.55100000000002,49.3019,310.8142,-5.9388e-06,-3.83e-06,0.0,0 STARLINK-5137,1 53975U 22125M   22346.80966362 -.00000383  00000-0 -59388-5 0  9992,2 53975  53.2162 129.5510 0001947  49.3019 310.8142 15.08837800 10819,6917.887,95.438,541.099,538.405,0.0
53975.0,STARLINK-5137,PAYLOAD,2022-12-13 16:05:55,15.08854158,0.0001885,53.2165,125.6851,45.6875,314.4272,-0.00019669,-3.418e-05,0.0,0 STARLINK-5137,1 53975U 22125M   22347.67077927 -.00003418  00000-0 -19669-3 0  9996,2 53975  53.2165 125.6851 0001885  45.6875 314.4272 15.08854158 11019,6917.837,95.437,541.006,538.398,0.0
53975.0,STARLINK-5137,PAYLOAD,2022-12-14 09:35:10,15.08833988,0.0001837,53.2169,122.4149,47.2959,312.8187,-3.7758e-05,-8.89e-06,0.0,0 STARLINK-5137,1 53975U 22125M   22348.39942825 -.00000889  00000-0 -37758-4 0  9993,2 53975  53.2169 122.4149 0001837  47.2959 312.8187 15.08833988 11123,6917.899,95.438,541.035,538.493,0.0
53975.0,STARLINK-5137,PAYLOAD,2022-12-14 15:56:43,15.08832091,0.0001794,53.2154,121.2256,39.9293,320.183,-1.1302e-05,-4.68e-06,0.0,0 STARLINK-5137,1 53975U 22125M   22348.66438912 -.00000468  00000-0 -11302-4 0  9990,2 53975  53.2154 121.2256 0001794  39.9293 320.1830 15.08832091 11091,6917.905,95.438,541.011,538.528,0.0
53975.0,STARLINK-5137,PAYLOAD,2022-12-15 09:25:57,15.0883969,0.0001669,53.2162,117.9521,38.734,321.3772,3.5311e-05,2.74e-06,0.0,0 STARLINK-5137,1 53975U 22125M   22349.39302371  .00000274  00000-0  35311-4 0  9999,2 53975  53.2162 117.9521 0001669  38.7340 321.3772 15.08839690 11278,6917.880999999999,95.438,540.901,538.592,0.0
53975.0,STARLINK-5137,PAYLOAD,2022-12-15 14:12:06,15.08834773,0.0001771999999999,53.216,117.0605,37.3906,322.721,3.821e-05,3.2e-06,0.0,0 STARLINK-5137,1 53975U 22125M   22349.59174666  .00000320  00000-0  38210-4 0  9998,2 53975  53.2160 117.0605 0001772  37.3906 322.7210 15.08834773 11233,6917.896,95.438,540.987,538.536,0.0
53975.0,STARLINK-5137,PAYLOAD,2022-12-15 18:58:16,15.08837671,0.000177,53.2166,116.1685,35.8707,324.2404,5.831e-05,6.4e-06,0.0,0 STARLINK-5137,1 53975U 22125M   22349.79046456  .00000640  00000-0  58310-4 0  9993,2 53975  53.2166 116.1685 0001770  35.8707 324.2404 15.08837671 11262,6917.888000000001,95.438,540.977,538.528,0.0
